[{"OBJECT_NAME":"STARLINK-32579","OBJECT_ID":"2024-207L","EPOCH":"2026-03-08T23:55:51.692448","MEAN_MOTION":15.27614477,"ECCENTRICITY":0.00012096,"INCLINATION":42.9981,"RA_OF_ASC_NODE":289.335,"ARG_OF_PERICENTER":287.7263,"MEAN_ANOMALY":72.3457,"EPHEMERIS_TYPE":0,"CLASSIFICATION_TYPE":"U","NORAD_CAT_ID":61922,"ELEMENT_SET_NO":999,"REV_AT_EPOCH":7457,"BSTAR":0.001259509,"MEAN_MOTION_DOT":0.00034596,"MEAN_MOTION_DDOT":0},{"OBJECT_NAME":"TRANSPORTER-1 OBJECT Z","OBJECT_ID":"2021-006Z","EPOCH":"2026-03-09T22:55:57.522432","MEAN_MOTION":15.30965056,"ECCENTRICITY":0.00100878,"INCLINATION":97.2377,"RA_OF_ASC_NODE":113.4736,"ARG_OF_PERICENTER":179.6869,"MEAN_ANOMALY":180.438,"EPHEMERIS_TYPE":0,"CLASSIFICATION_TYPE":"U","NORAD_CAT_ID":47436,"ELEMENT_SET_NO":999,"REV_AT_EPOCH":28420,"BSTAR":0.00024088983,"MEAN_MOTION_DOT":7.143e-5,"MEAN_MOTION_DDOT":0}]
